NORAD_CAT_ID,OBJECT_NAME,OBJECT_TYPE,EPOCH,MEAN_MOTION,ECCENTRICITY,INCLINATION,RA_OF_ASC_NODE,ARG_OF_PERICENTER,MEAN_ANOMALY,BSTAR,MEAN_MOTION_DOT,MEAN_MOTION_DDOT,TLE_LINE0,TLE_LINE1,TLE_LINE2,SEMIMAJOR_AXIS,PERIOD,APOGEE,PERIGEE,DECAYED
53430.0,STARLINK-4538,PAYLOAD,2023-10-10 18:22:13,15.08830242,0.0001692,53.2158,98.7785,80.4447,279.6736,-0.00022369,-3.845e-05,0.0,0 STARLINK-4538,1 53430U 22097AU  23283.76543385 -.00003845  00000-0 -22369-3 0  9991,2 53430  53.2158  98.7785 0001692  80.4447 279.6736 15.08830242 65318,6917.91,95.438,540.946,538.605,0.0
53430.0,STARLINK-4538,PAYLOAD,2023-10-11 11:51:28,15.08839395,0.0001823,53.2153,95.507,81.4614,278.6585,-3.1733e-05,-7.93e-06,0.0,0 STARLINK-4538,1 53430U 22097AU  23284.49407524 -.00000793  00000-0 -31733-4 0  9991,2 53430  53.2153  95.5070 0001823  81.4614 278.6585 15.08839395 65429,6917.882,95.438,541.008,538.486,0.0
53430.0,STARLINK-4538,PAYLOAD,2023-10-12 14:53:01,15.0884918,0.0001713,53.216,90.452,74.4662,285.6519,0.00053354,8.216e-05,0.0,0 STARLINK-4538,1 53430U 22097AU  23285.62015752  .00008216  00000-0  53354-3 0  9993,2 53430  53.2160  90.4520 0001713  74.4662 285.6519 15.08849180 66052,6917.852,95.437,540.902,538.532,0.0
53430.0,STARLINK-4538,PAYLOAD,2023-10-12 18:03:47,15.08854785,0.0001681,53.2159,89.8572,73.6434,286.4743,0.00063951,9.909e-05,0.0,0 STARLINK-4538,1 53430U 22097AU  23285.75263574  .00009909  00000-0  63951-3 0  9998,2 53430  53.2159  89.8572 0001681  73.6434 286.4743 15.08854785 65617,6917.835,95.437,540.863,538.537,0.0
53430.0,STARLINK-4538,PAYLOAD,2023-10-13 03:36:06,15.08852305,0.0001226,53.2157,88.0719,52.5109,307.5994,0.00040202,6.118e-05,0.0,0 STARLINK-4538,1 53430U 22097AU  23286.15007398  .00006118  00000-0  40202-3 0  9996,2 53430  53.2157  88.0719 0001226  52.5109 307.5994 15.08852305 65674,6917.843,95.437,540.556,538.86,0.0
53430.0,STARLINK-4538,PAYLOAD,2023-10-13 11:33:02,15.08844261,0.0001913,53.2175,86.5877,79.4752,280.6456,0.00017202,2.451e-05,0.0,0 STARLINK-4538,1 53430U 22097AU  23286.48127798  .00002451  00000-0  17202-3 0  9999,2 53430  53.2175  86.5877 0001913  79.4752 280.6456 15.08844261 65729,6917.867,95.437,541.056,538.409,0.0
53430.0,STARLINK-4538,PAYLOAD,2023-10-13 14:43:48,15.08837134,0.0001584,53.2161,85.991,78.8678,281.2492,6.9755e-08,-2.87e-06,0.0,0 STARLINK-4538,1 53430U 22097AU  23286.61375935 -.00000287  00000-0  69755-7 0  9992,2 53430  53.2161  85.9910 0001584  78.8678 281.2492 15.08837134 66201,6917.889,95.438,540.85,538.658,0.0
53430.0,STARLINK-4538,PAYLOAD,2023-10-13 17:54:34,15.08844669,0.0001507,53.2155,85.3981,82.8472,277.2691,0.00017008,2.42e-05,0.0,0 STARLINK-4538,1 53430U 22097AU  23286.74623707  .00002420  00000-0  17008-3 0  9999,2 53430  53.2155  85.3981 0001507  82.8472 277.2691 15.08844669 66227,6917.866,95.437,540.774,538.689,0.0
53430.0,STARLINK-4538,PAYLOAD,2023-10-14 12:59:12,15.08840047,0.000148,53.2156,81.8291,82.8115,277.3045,0.00011534,1.548e-05,0.0,0 STARLINK-4538,1 53430U 22097AU  23287.54111891  .00001548  00000-0  11534-3 0  9992,2 53430  53.2156  81.8291 0001480  82.8115 277.3045 15.08840047 66340,6917.88,95.438,540.769,538.721,0.0
53430.0,STARLINK-4538,PAYLOAD,2023-10-14 17:45:22,15.08845503,0.0001418,53.2156,80.9369,78.9981,281.1171,0.00042287,6.449e-05,0.0,0 STARLINK-4538,1 53430U 22097AU  23287.73983832  .00006449  00000-0  42287-3 0  9999,2 53430  53.2156  80.9369 0001418  78.9981 281.1171 15.08845503 65911,6917.864,95.437,540.71,538.748,0.0
53430.0,STARLINK-4538,PAYLOAD,2023-10-15 09:39:13,15.08836993,0.0001455,53.215,77.9649,69.5146,290.6002,3.0269e-05,1.94e-06,0.0,0 STARLINK-4538,1 53430U 22097AU  23288.40224264  .00000194  00000-0  30269-4 0  9990,2 53430  53.2150  77.9649 0001455  69.5146 290.6002 15.08836993 66015,6917.89,95.438,540.761,538.748,0.0
53430.0,STARLINK-4538,PAYLOAD,2023-10-15 14:25:23,15.08833324,0.0001348,53.2162,77.0708,80.2897,279.8247,1.3447e-05,-7.4e-07,0.0,0 STARLINK-4538,1 53430U 22097AU  23288.60096401 -.00000074  00000-0  13447-4 0  9999,2 53430  53.2162  77.0708 0001348  80.2897 279.8247 15.08833324 66508,6917.901,95.438,540.698,538.833,0.0
53430.0,STARLINK-4538,PAYLOAD,2023-10-15 19:11:32,15.08841056,0.0001406,53.2167,76.1783,83.1597,276.9555,0.00013759,1.903e-05,0.0,0 STARLINK-4538,1 53430U 22097AU  23288.79968260  .00001903  00000-0  13759-3 0  9996,2 53430  53.2167  76.1783 0001406  83.1597 276.9555 15.08841056 66534,6917.877,95.437,540.715,538.77,0.0
53430.0,STARLINK-4538,PAYLOAD,2023-10-16 14:16:10,15.0884214,0.0001397,53.2171,72.6096,84.5077,275.6075,0.00013363,1.84e-05,0.0,0 STARLINK-4538,1 53430U 22097AU  23289.59456490  .00001840  00000-0  13363-3 0  9993,2 53430  53.2171  72.6096 0001397  84.5077 275.6075 15.08842140 66655,6917.874,95.437,540.705,538.772,0.0
53430.0,STARLINK-4538,PAYLOAD,2023-10-16 17:26:56,15.08846252,0.0001406,53.2171,72.0145,85.8236,274.2917,0.00019153,2.762e-05,0.0,0 STARLINK-4538,1 53430U 22097AU  23289.72704333  .00002762  00000-0  19153-3 0  9997,2 53430  53.2171  72.0145 0001406  85.8236 274.2917 15.08846252 66216,6917.861,95.437,540.699,538.754,0.0
53430.0,STARLINK-4538,PAYLOAD,2023-10-17 09:20:48,15.08844477,0.0001425,53.2172,69.0427,80.7882,279.3271,0.00023458,3.448e-05,0.0,0 STARLINK-4538,1 53430U 22097AU  23290.38944536  .00003448  00000-0  23458-3 0  9997,2 53430  53.2172  69.0427 0001425  80.7882 279.3271 15.08844477 66315,6917.867,95.437,540.718,538.746,0.0
53430.0,STARLINK-4538,PAYLOAD,2023-10-18 12:22:21,15.08844929,0.0001457,53.2175,63.9878,82.9621,277.1537,0.00015421,2.167e-05,0.0,0 STARLINK-4538,1 53430U 22097AU  23291.51552520  .00002167  00000-0  15421-3 0  9999,2 53430  53.2175  63.9878 0001457  82.9621 277.1537 15.08844929 66482,6917.865,95.437,540.738,538.722,0.0
53430.0,STARLINK-4538,PAYLOAD,2023-10-18 15:33:07,15.088429,0.0001351,53.2173,63.3915,95.9698,264.1448,0.00022378,3.276e-05,0.0,0 STARLINK-4538,1 53430U 22097AU  23291.64800557  .00003276  00000-0  22378-3 0  9990,2 53430  53.2173  63.3915 0001351  95.9698 264.1448 15.08842900 66964,6917.872,95.437,540.671,538.802,0.0
53430.0,STARLINK-4538,PAYLOAD,2023-10-19 12:13:08,15.08848487,0.0001564,53.2173,59.5256,95.4209,264.6962,0.00018152,2.603e-05,0.0,0 STARLINK-4538,1 53430U 22097AU  23292.50912084  .00002603  00000-0  18152-3 0  9993,2 53430  53.2173  59.5256 0001564  95.4209 264.6962 15.08848487 67095,6917.854,95.437,540.801,538.637,0.0
53430.0,STARLINK-4538,PAYLOAD,2023-10-20 00:56:13,15.08843689,0.0001397,53.2167,57.1493,84.2072,275.9079,0.00020108,2.914e-05,0.0,0 STARLINK-4538,1 53430U 22097AU  23293.03904184  .00002914  00000-0  20108-3 0  9993,2 53430  53.2167  57.1493 0001397  84.2072 275.9079 15.08843689 66714,6917.869,95.437,540.701,538.768,0.0
53430.0,STARLINK-4538,PAYLOAD,2023-10-20 12:03:55,15.08830261,0.0001757,53.2186,55.0681,102.8878,257.231,-3.8096e-05,-8.94e-06,0.0,0 STARLINK-4538,1 53430U 22097AU  23293.50272945 -.00000894  00000-0 -38096-4 0  9991,2 53430  53.2186  55.0681 0001757 102.8878 257.2310 15.08830261 66782,6917.91,95.438,540.991,538.56,0.0
53430.0,STARLINK-4538,PAYLOAD,2023-10-21 11:54:42,15.08841908,0.0001339,53.2171,50.6069,87.8836,272.2309,4.1988e-05,3.8e-06,0.0,0 STARLINK-4538,1 53430U 22097AU  23294.49632541  .00000380  00000-0  41988-4 0  9994,2 53430  53.2171  50.6069 0001339  87.8836 272.2309 15.08841908 66931,6917.875,95.437,540.666,538.813,0.0
53430.0,STARLINK-4538,PAYLOAD,2023-10-21 18:16:14,15.08850498,0.0001373,53.2162,49.4144,97.8866,262.2282,0.00016043,2.267e-05,0.0,0 STARLINK-4538,1 53430U 22097AU  23294.76128016  .00002267  00000-0  16043-3 0  9990,2 53430  53.2162  49.4144 0001373  97.8866 262.2282 15.08850498 67432,6917.848,95.437,540.663,538.763,0.0
53430.0,STARLINK-4538,PAYLOAD,2023-10-22 00:37:47,15.08827396,6.62e-05,53.2167,48.2272,114.6472,245.4589,6.1714e-05,6.94e-06,0.0,0 STARLINK-4538,1 53430U 22097AU  23295.02624934  .00000694  00000-0  61714-4 0  9998,2 53430  53.2167  48.2272 0000662 114.6472 245.4589 15.08827396 67015,6917.919,95.438,540.242,539.326,0.0
53430.0,STARLINK-4538,PAYLOAD,2023-10-22 13:20:53,15.08829799,0.0001299,53.2169,45.8489,77.95,282.1638,3.4413e-05,2.6e-06,0.0,0 STARLINK-4538,1 53430U 22097AU  23295.55617643  .00000260  00000-0  34413-4 0  9990,2 53430  53.2169  45.8489 0001299  77.9500 282.1638 15.08829799 67551,6917.912,95.438,540.675,538.878,0.0
53430.0,STARLINK-4538,PAYLOAD,2023-10-22 14:56:16,15.08831434,0.000133,53.2169,45.5514,89.9074,270.207,2.9302e-06,-2.41e-06,0.0,0 STARLINK-4538,1 53430U 22097AU  23295.62241402 -.00000241  00000-0  29302-5 0  9996,2 53430  53.2169  45.5514 0001330  89.9074 270.2070 15.08831434 67560,6917.907,95.438,540.692,538.851,0.0
53430.0,STARLINK-4538,PAYLOAD,2023-10-23 00:28:35,15.08839639,0.0001183,53.2168,43.7675,104.1207,255.9917,6.5388e-05,7.53e-06,0.0,0 STARLINK-4538,1 53430U 22097AU  23296.01985231  .00000753  00000-0  65388-4 0  9995,2 53430  53.2168  43.7675 0001183 104.1207 255.9917 15.08839639 67162,6917.881,95.438,540.565,538.928,0.0
53430.0,STARLINK-4538,PAYLOAD,2023-10-23 11:36:17,15.08837866,0.0001311,53.217,41.6861,89.434,270.6803,0.00011441,1.533e-05,0.0,0 STARLINK-4538,1 53430U 22097AU  23296.48353534  .00001533  00000-0  11441-3 0  9998,2 53430  53.2170  41.6861 0001311  89.4340 270.6803 15.08837866 67691,6917.887,95.438,540.659,538.845,0.0
53430.0,STARLINK-4538,PAYLOAD,2023-10-24 13:02:27,15.08842531,0.0001513,53.2166,36.9297,91.1062,269.0104,0.00021314,3.106e-05,0.0,0 STARLINK-4538,1 53430U 22097AU  23297.54337661  .00003106  00000-0  21314-3 0  9997,2 53430  53.2166  36.9297 0001513  91.1062 269.0104 15.08842531 67399,6917.873,95.437,540.784,538.691,0.0
53430.0,STARLINK-4538,PAYLOAD,2023-10-25 12:53:14,15.0884366,0.0001753,53.2182,32.4685,83.7599,276.3593,0.00013908,1.926e-05,0.0,0 STARLINK-4538,1 53430U 22097AU  23298.53697726  .00001926  00000-0  13908-3 0  9996,2 53430  53.2182  32.4685 0001753  83.7599 276.3593 15.08843660 67541,6917.869,95.437,540.947,538.521,0.0
